101P/Chernykh,e,5.0527,116.2290,277.7039,5.802980,0.0705062,0.59594642,35.3510,05/28.0/2021,2000,g 10.0,4.8
# From MPC 86232
102P/Shoemaker,e,25.8849,339.3662,20.5435,3.812716,0.1323892,0.45709182,16.6280,05/28.0/2021,2000,g  6.5,8.0
# From MPEC 2018-HA5
103P/Hartley,e,13.6009,219.7314,181.2835,3.476134,0.1520755,0.69323104,228.0186,05/28.0/2021,2000,g  8.5,8.0
# From MPC100283
104P/Kowal,e,5.7191,207.4084,227.1013,3.207824,0.1715491,0.66558648,320.8692,05/28.0/2021,2000,g 16.0,4.0
# From MPC109147
105P/Singer Brewster,e,9.1706,192.4123,46.4856,3.467335,0.1526548,0.40948718,156.0673,05/28.0/2021,2000,g 11.5,6.0
# From MPC 92276
106P/Schuster,e,19.5361,48.8872,353.6620,3.762684,0.1350384,0.59373608,348.8240,05/28.0/2021,2000,g 14.0,4.8
# From MPEC 2015-M77
107P/Wilson-Harrington,e,2.7986,266.7924,95.4065,2.625257,0.2317108,0.63155520,254.8709,05/28.0/2021,2000,g  9.0,4.0
# From MPC 89313
108P/Ciffreo,e,11.4370,50.2938,354.4076,3.738776,0.1363358,0.55592588,345.6747,05/28.0/2021,2000,g  8.0,12.0
# From  105, 420
109P/Swift-Tuttle,e,113.9901,139.0369,152.9115,26.14023,0.0073746,0.96287579,76.7202,05/28.0/2021,2000,g  4.0,6.0
# From MPEC 2020-W26
110P/Hartley,e,11.7073,287.5344,167.4539,3.601298,0.1442167,0.31810572,339.3285,05/28.0/2021,2000,g  1.0,12.0
# From MPC 75718
111P/Helin-Roman-Crockett,e,4.2270,89.7667,1.0015,4.147137,0.1167029,0.10597714,357.8171,05/28.0/2021,2000,g  5.0,8.0
# From MPEC 2021-F20
112P/Urata-Niijima,e,24.1956,31.8362,21.4847,3.525689,0.1488806,0.58988799,70.7202,05/28.0/2021,2000,g 15.3,4.0
# From MPEC 2015-E14
113P/Spitaler,e,5.2952,306.7088,115.3536,3.699749,0.1384987,0.42106211,308.9073,05/28.0/2021,2000,g 13.5,4.0
# From MPEC 2021-J28
114P/Wiseman-Skiff,e,18.2732,271.0510,172.7755,3.545393,0.1476412,0.55474780,73.8151,05/28.0/2021,2000,g 11.5,6.0
# From MPEC 2020-SI8
115P/Maury,e,11.6776,176.0102,120.9773,4.272402,0.1116081,0.51860590,33.7483,05/28.0/2021,2000,g 10.5,6.0
# From MPC106348
116P/Wild,e,3.6034,20.9855,173.3403,3.489797,0.1511833,0.37063651,297.2547,05/28.0/2021,2000,g  2.5,10.0
# From MPEC 2021-F20
117P/Helin-Roman-Alu,e,8.7026,58.8431,222.8449,4.084783,0.1193852,0.25570529,311.6091,05/28.0/2021,2000,g 10.8,4.0
# From MPC 95735
118P/Shoemaker-Levy,e,10.0909,142.1120,314.3777,3.362571,0.1598442,0.45531625,273.1105,05/28.0/2021,2000,g 12.0,4.0
# From MPC 84628
119P/Parker-Hartley,e,7.4036,104.6870,321.6974,3.817699,0.1321301,0.39015976,301.8791,05/28.0/2021,2000,g  3.5,8.0
# From MPEC 2020-SI8
120P/Mueller,e,8.4900,358.6744,36.5602,3.961415,0.1250054,0.37449940,2.6064,05/28.0/2021,2000,g 12.0,4.0
# From MPEC 2020-SI8
121P/Shoemaker-Holt,e,20.1630,94.1278,11.3739,4.584809,0.1003973,0.18561712,283.6701,05/28.0/2021,2000,g  6.5,8.0
# From MPC 75718
122P/de Vico,e,84.9149,79.5548,13.0073,17.62697,0.0133180,0.96225621,125.0647,05/28.0/2021,2000,g  7.5,5.2
# From MPEC 2021-F20
123P/West-Hartley,e,15.2934,46.1757,103.8420,3.873942,0.1292630,0.44710058,108.9690,05/28.0/2021,2000,g 12.2,4.0
# From MPEC 2021-F20
124P/Mrkos,e,31.5219,0.3296,183.9763,3.320687,0.1628779,0.50350116,64.4977,05/28.0/2021,2000,g 15.2,4.0
# From MPEC 2015-M77
125P/Spacewatch,e,9.9866,153.1496,87.2394,3.125894,0.1783375,0.51268664,179.1491,05/28.0/2021,2000,g  9.0,4.0
# From MPC 66205
126P/IRAS,e,45.8693,357.8629,356.5246,5.639980,0.0735847,0.69627585,303.4619,05/28.0/2021,2000,g  9.0,4.0
# From MPC 84321
127P/Holt-Olmstead,e,14.2965,13.6348,6.4690,3.451382,0.1537144,0.35989701,292.3577,05/28.0/2021,2000,g 11.0,6.0
# From MPC 89014
128P/Shoemaker-Holt,e,4.3675,214.2980,210.3050,4.492189,0.1035183,0.32074195,165.6002,05/28.0/2021,2000,g  8.5,4.0
# From MPEC 2019-TG9
129P/Shoemaker-Levy,e,3.4423,184.8816,307.8243,4.283449,0.1111767,0.08403888,298.3936,05/28.0/2021,2000,g 11.0,4.0
# From MPC 78188
130P/McNaught-Hughes,e,6.0628,70.2262,246.0092,3.383813,0.1583414,0.46136586,193.3862,05/28.0/2021,2000,g 10.0,6.0
# From MPC102101
131P/Mueller,e,7.3554,214.1576,179.0271,3.680686,0.1395761,0.34392553,119.2909,05/28.0/2021,2000,g 11.0,4.0
# From MPEC 2020-HN5
132P/Helin-Roman-Alu,e,5.3815,174.0022,216.3442,3.888393,0.1285431,0.56494435,338.2593,05/28.0/2021,2000,g 11.0,6.0
# From MPC 94676
133P/Elst-Pizarro,e,1.3892,160.1082,131.8305,3.164723,0.1750655,0.15693710,171.4230,05/28.0/2021,2000,g 15.4,2.0
# From MPC 89012
134P/Kowal-Vavrova,e,4.3398,202.0728,18.8875,6.260297,0.0629233,0.58605836,161.4670,05/28.0/2021,2000,g 11.5,4.0
# From MPEC 2021-F20
135P/Shoemaker-Levy,e,6.0619,213.0290,22.2954,3.803156,0.1328887,0.29528924,318.2419,05/28.0/2021,2000,g  7.0,8.0
# From MPEC 2020-W26
136P/Mueller,e,9.4244,137.4485,224.9036,4.193448,0.1147750,0.29275540,209.0328,05/28.0/2021,2000,g 11.0,4.0
# From MPEC 2021-J28
137P/Shoemaker-Levy,e,4.8538,233.0316,141.0343,4.520612,0.1025435,0.57350686,91.9062,05/28.0/2021,2000,g 11.0,4.0
# From MPEC 2016-U66
138P/Shoemaker-Levy,e,10.0909,309.3303,95.5453,3.622197,0.1429704,0.53051795,108.1030,05/28.0/2021,2000,g 15.0,6.0
# From MPEC 2020-HN5
139P/Vaisala-Oterma,e,2.3340,242.1730,165.7263,4.522640,0.1024746,0.24677806,129.6723,05/28.0/2021,2000,g  9.5,4.0
# From MPEC 2015-E14
140P/Bowell-Skiff,e,3.8338,343.2774,172.8733,6.429701,0.0604530,0.69151311,128.3167,05/28.0/2021,2000,g 11.5,6.0
# From MPEC 2021-AJ0
141P/Machholz,e,13.9449,241.8455,153.5491,3.057268,0.1843758,0.73574063,30.0009,05/28.0/2021,2000,g 14.7,4.0
# From MPC 71683
142P/Ge-Wang,e,12.2505,175.9326,173.9512,5.002587,0.0880871,0.49764787,1.3559,05/28.0/2021,2000,g  9.0,4.0
# From MPEC 2021-BE3
143P/Kowal-Mrkos,e,4.6979,245.2268,320.4006,4.282447,0.1112157,0.41076494,124.4075,05/28.0/2021,2000,g 13.5,2.0
# From MPC104795
144P/Kushida,e,3.9417,243.3098,216.2526,3.818874,0.1320691,0.63629012,231.5482,05/28.0/2021,2000,g  8.5,8.0
# From MPC108598
145P/Shoemaker-Levy,e,11.2723,26.7879,10.2431,4.138627,0.1170630,0.54141616,159.7549,05/28.0/2021,2000,g 13.5,4.0
# From MPC100284
146P/Shoemaker-LINEAR,e,23.0952,53.3993,316.9424,4.032298,0.1217237,0.64699662,218.1178,05/28.0/2021,2000,g 15.0,4.0
# From MPC 75720
147P/Kushida-Muramatsu,e,2.3361,93.0403,349.9067,3.993295,0.1235114,0.23012036,245.7870,05/28.0/2021,2000,g 14.0,4.0
# From MPEC 2014-R70
148P/Anderson-LINEAR,e,3.6585,89.2627,7.8323,3.624543,0.1428316,0.55010757,305.5190,05/28.0/2021,2000,g  9.0,4.0
# From MPC 75720
149P/Mueller,e,31.0199,144.7200,45.0611,4.351919,0.1085633,0.39704230,89.2562,05/28.0/2021,2000,g  8.0,8.0
# From MPC 75720
150P/LONEOS,e,18.5061,272.3826,245.5573,3.879614,0.1289797,0.54702565,228.3184,05/28.0/2021,2000,g 13.5,4.0
# From MPEC 2015-Q71
151P/Helin,e,4.7285,143.1564,216.0488,5.763658,0.0712290,0.57346399,146.4767,05/28.0/2021,2000,g 10.0,6.0
# From MPEC 2021-F20
152P/Helin-Lawrence,e,9.8798,91.8615,163.9033,4.478236,0.1040025,0.30885829,336.0280,05/28.0/2021,2000,g 12.6,4.0
# From MPC 46101
153P/Ikeya-Zhang,e,27.8120,93.1468,35.1025,50.66465,0.0027330,0.98962579,0.0000,03/06.3864/2002,2000,g  9.0,4.0
# From MPC 87068
154P/Brewington,e,17.6326,343.0354,47.8384,4.802875,0.0936380,0.67561440,255.7704,05/28.0/2021,2000,g  2.5,12.0
# From MPEC 2021-F20
155P/Shoemaker,e,6.3963,97.1931,14.6257,6.578787,0.0584098,0.72621810,32.7151,05/28.0/2021,2000,g 13.8,4.0
# From MPEC 2021-J28
156P/Russell-LINEAR,e,17.2622,35.3650,0.4371,3.460860,0.1530834,0.61482792,29.2567,05/28.0/2021,2000,g 15.5,2.0
# From MPC104795
157P/Tritton,e,12.4748,287.7340,154.8771,3.550864,0.1473001,0.55836428,290.8976,05/28.0/2021,2000,g 10.0,4.0
# From MPEC 2016-K18
158P/Kowal-LINEAR,e,8.0170,135.5246,172.1441,4.976601,0.0887779,0.03565883,1.5318,05/28.0/2021,2000,g  9.0,4.0
# From MPEC 2021-F20
159P/LONEOS,e,23.4653,54.9827,4.5764,5.854415,0.0695791,0.38172276,76.6794,05/28.0/2021,2000,g 10.0,4.0
# From MPEC 2021-J28
160P/LINEAR,e,15.6168,333.3598,12.7044,3.774243,0.1344186,0.52630249,72.9343,05/28.0/2021,2000,g 15.5,2.0
# From MPC 75721
161P/Hartley-IRAS,e,95.7808,1.5378,46.9474,7.724948,0.0459051,0.83476211,267.6895,05/28.0/2021,2000,g  8.5,6.0
# From MPEC 2021-J28
162P/Siding Spring,e,27.5544,30.9082,357.1427,3.091027,0.1813635,0.58293338,31.0442,05/28.0/2021,2000,g 12.0,4.0
# From MPEC 2020-HN5
163P/NEAT,e,12.7084,102.0865,349.6143,3.767766,0.1347653,0.45185774,89.2099,05/28.0/2021,2000,g 14.5,4.0
# From MPEC 2021-F20
164P/Christensen,e,16.2558,88.2914,325.8355,3.656808,0.1409454,0.54003002,153.9982,05/28.0/2021,2000,g 11.0,4.0
# From MPC 75721
165P/LINEAR,e,15.8963,0.8303,126.0400,17.88154,0.0130346,0.61491131,100.1494,05/28.0/2021,2000,g 11.5,2.0
# From MPC 75722
166P/NEAT,e,15.3685,64.4490,321.4533,13.82053,0.0191830,0.38333815,133.3808,05/28.0/2021,2000,g  5.5,4.0
# From MPC 75722
167P/CINEOS,e,19.1198,295.6615,344.4839,16.21264,0.0150981,0.27218331,110.5419,05/28.0/2021,2000,g  9.5,2.0
# From MPC102101
168P/Hergenrother,e,21.6199,355.4533,14.9977,3.582271,0.1453672,0.62090629,96.1866,05/28.0/2021,2000,g 15.5,4.0
# From MPEC 2021-J28
169P/NEAT,e,11.2984,176.1034,218.0506,2.601306,0.2349183,0.76817416,264.2156,05/28.0/2021,2000,g 16.0,2.0
# From MPC 89012
170P/Christensen,e,10.1250,142.9220,225.6120,4.198647,0.1145619,0.30376763,280.5862,05/28.0/2021,2000,g 12.0,4.0
# From MPC102102
171P/Spahr,e,21.9345,101.6950,347.0840,3.555467,0.1470141,0.50158625,127.2646,05/28.0/2021,2000,g 13.5,4.0
# From MPEC 2021-BE3
172P/Yeung,e,11.2287,30.8924,209.4136,4.212830,0.1139838,0.20550614,175.2063,05/28.0/2021,2000,g 13.0,4.0
# From MPEC 2021-J28
173P/Mueller,e,16.4950,100.4029,29.2280,5.704542,0.0723391,0.26078311,345.3071,05/28.0/2021,2000,g  7.5,4.0
# From MPC 92985
174P/Echeclus,e,4.3433,173.2227,163.0813,10.71796,0.0280890,0.45739747,62.4982,05/28.0/2021,2000,g  9.4,2.0
# From MPC114608
175P/Hergenrother,e,6.0735,123.5082,56.8363,3.447819,0.1539527,0.43435491,92.7667,05/28.0/2021,2000,g 14.0,4.0
# From MPC 89015
176P/LINEAR,e,0.2348,345.8979,35.0108,3.193976,0.1726659,0.19305675,265.9975,05/28.0/2021,2000,g 15.1,2.0
# From MPEC 2020-L06
177P/Barnard,e,31.2818,272.2517,60.2421,24.41953,0.0081677,0.95529728,43.9537,05/28.0/2021,2000,g 15.0,4.0
# From MPEC 2021-F20
